{
    "links": {
        "self": "http://www.neowsapp.com/rest/v1/neo/3739614?api_key=iIulBulltgU6a56xZRHN4H3l9WmuAYTsLGpBGhQ2"
    },
    "id": "3739614",
    "neo_reference_id": "3739614",
    "name": "(2016 AJ66)",
    "designation": "2016 AJ66",
    "nasa_jpl_url": "http://ssd.jpl.nasa.gov/sbdb.cgi?sstr=3739614",
    "absolute_magnitude_h": 25.3,
    "estimated_diameter": {
        "kilometers": {
            "estimated_diameter_min": 0.0231502122,
            "estimated_diameter_max": 0.0517654482
        },
        "meters": {
            "estimated_diameter_min": 23.150212221,
            "estimated_diameter_max": 51.7654482198
        },
        "miles": {
            "estimated_diameter_min": 0.0143848705,
            "estimated_diameter_max": 0.0321655483
        },
        "feet": {
            "estimated_diameter_min": 75.9521422633,
            "estimated_diameter_max": 169.8341531374
        }
    },
    "is_potentially_hazardous_asteroid": false,
    "close_approach_data": [
        {
            "close_approach_date": "2015-12-10",
            "close_approach_date_full": "2015-Dec-10 19:15",
            "epoch_date_close_approach": 1449774900000,
            "relative_velocity": {
                "kilometers_per_second": "7.8808899477",
                "kilometers_per_hour": "28371.203811793",
                "miles_per_hour": "17628.7627240555"
            },
            "miss_distance": {
                "astronomical": "0.049084278",
                "lunar": "19.093784142",
                "kilometers": "7342903.43928786",
                "miles": "4562668.623418068"
            },
            "orbiting_body": "Earth"
        }
    ],
    "orbital_data": {
        "orbit_id": "3",
        "orbit_determination_date": "2017-04-06 08:29:17",
        "first_observation_date": "2016-01-04",
        "last_observation_date": "2016-01-12",
        "data_arc_in_days": 8,
        "observations_used": 12,
        "orbit_uncertainty": "8",
        "minimum_orbit_intersection": ".0359588",
        "jupiter_tisserand_invariant": "4.127",
        "epoch_osculation": "2457392.5",
        "eccentricity": ".4312309418384005",
        "semi_major_axis": "1.671480373258163",
        "inclination": "7.326371595756216",
        "ascending_node_longitude": "277.8887641768703",
        "orbital_period": "789.3149870154234",
        "perihelion_distance": ".9506863176336443",
        "perihelion_argument": "131.8151493589324",
        "aphelion_distance": "2.392274428882682",
        "perihelion_time": "2457343.040596728427",
        "mean_anomaly": "22.55802242535952",
        "mean_motion": ".4560916819294671",
        "equinox": "J2000",
        "orbit_class": {
            "orbit_class_type": "APO",
            "orbit_class_description": "Near-Earth asteroid orbits which cross the Earth’s orbit similar to that of 1862 Apollo",
            "orbit_class_range": "a (semi-major axis) > 1.0 AU; q (perihelion) < 1.017 AU"
        }
    },
    "is_sentry_object": false
}